[{"OBJECT_NAME":"SL-8 R/B","OBJECT_ID":"1979-089B","EPOCH":"2026-03-02T12:46:14.990880","MEAN_MOTION":14.42345054,"ECCENTRICITY":0.0017104,"INCLINATION":74.0673,"RA_OF_ASC_NODE":104.2945,"ARG_OF_PERICENTER":277.6823,"MEAN_ANOMALY":82.2391,"EPHEMERIS_TYPE":0,"CLASSIFICATION_TYPE":"U","NORAD_CAT_ID":11574,"ELEMENT_SET_NO":999,"REV_AT_EPOCH":43507,"BSTAR":9.4139e-5,"MEAN_MOTION_DOT":2.85e-6,"MEAN_MOTION_DDOT":0},{"OBJECT_NAME":"SL-14 R/B","OBJECT_ID":"1980-005B","EPOCH":"2026-03-02T17:56:48.384672","MEAN_MOTION":14.90920563,"ECCENTRICITY":0.0015567,"INCLINATION":82.5157,"RA_OF_ASC_NODE":313.8205,"ARG_OF_PERICENTER":180.9466,"MEAN_ANOMALY":179.1727,"EPHEMERIS_TYPE":0,"CLASSIFICATION_TYPE":"U","NORAD_CAT_ID":11672,"ELEMENT_SET_NO":999,"REV_AT_EPOCH":47545,"BSTAR":6.9342e-5,"MEAN_MOTION_DOT":7.1e-6,"MEAN_MOTION_DDOT":0},{"OBJECT_NAME":"SL-8 R/B","OBJECT_ID":"1981-003B","EPOCH":"2026-03-02T17:09:38.607552","MEAN_MOTION":15.10656978,"ECCENTRICITY":0.0262736,"INCLINATION":82.9395,"RA_OF_ASC_NODE":296.473,"ARG_OF_PERICENTER":202.8612,"MEAN_ANOMALY":156.0754,"EPHEMERIS_TYPE":0,"CLASSIFICATION_TYPE":"U","NORAD_CAT_ID":12139,"ELEMENT_SET_NO":999,"REV_AT_EPOCH":31362,"BSTAR":0.00051315,"MEAN_MOTION_DOT":0.00019842,"MEAN_MOTION_DDOT":0},{"OBJECT_NAME":"SL-3 R/B","OBJECT_ID":"1981-046B","EPOCH":"2026-03-02T18:36:59.202144","MEAN_MOTION":15.41779847,"ECCENTRICITY":0.0020138,"INCLINATION":81.2313,"RA_OF_ASC_NODE":298.0461,"ARG_OF_PERICENTER":45.6598,"MEAN_ANOMALY":314.629,"EPHEMERIS_TYPE":0,"CLASSIFICATION_TYPE":"U","NORAD_CAT_ID":12465,"ELEMENT_SET_NO":999,"REV_AT_EPOCH":43736,"BSTAR":0.00033057,"MEAN_MOTION_DOT":0.00014125,"MEAN_MOTION_DDOT":0},{"OBJECT_NAME":"SL-3 R/B","OBJECT_ID":"1981-103B","EPOCH":"2026-03-02T19:12:35.003232","MEAN_MOTION":15.21271025,"ECCENTRICITY":0.0012564,"INCLINATION":81.1567,"RA_OF_ASC_NODE":221.5134,"ARG_OF_PERICENTER":311.8549,"MEAN_ANOMALY":48.1609,"EPHEMERIS_TYPE":0,"CLASSIFICATION_TYPE":"U","NORAD_CAT_ID":12904,"ELEMENT_SET_NO":999,"REV_AT_EPOCH":97218,"BSTAR":0.00030166,"MEAN_MOTION_DOT":6.78e-5,"MEAN_MOTION_DDOT":0},{"OBJECT_NAME":"SL-3 R/B","OBJECT_ID":"1982-013B","EPOCH":"2026-03-02T17:53:42.908064","MEAN_MOTION":15.21929234,"ECCENTRICITY":0.0022289,"INCLINATION":81.1771,"RA_OF_ASC_NODE":168.9071,"ARG_OF_PERICENTER":201.0884,"MEAN_ANOMALY":158.9432,"EPHEMERIS_TYPE":0,"CLASSIFICATION_TYPE":"U","NORAD_CAT_ID":13068,"ELEMENT_SET_NO":999,"REV_AT_EPOCH":40329,"BSTAR":0.00024637,"MEAN_MOTION_DOT":5.676e-5,"MEAN_MOTION_DDOT":0},{"OBJECT_NAME":"SL-3 R/B","OBJECT_ID":"1982-039B","EPOCH":"2026-03-02T18:22:17.276736","MEAN_MOTION":15.10031044,"ECCENTRICITY":0.0029903,"INCLINATION":81.1579,"RA_OF_ASC_NODE":223.9447,"ARG_OF_PERICENTER":347.0452,"MEAN_ANOMALY":13.0001,"EPHEMERIS_TYPE":0,"CLASSIFICATION_TYPE":"U","NORAD_CAT_ID":13154,"ELEMENT_SET_NO":999,"REV_AT_EPOCH":38059,"BSTAR":0.00020157,"MEAN_MOTION_DOT":3.334e-5,"MEAN_MOTION_DDOT":0},{"OBJECT_NAME":"SL-3 R/B","OBJECT_ID":"1982-079B","EPOCH":"2026-03-02T18:37:41.723904","MEAN_MOTION":15.24672458,"ECCENTRICITY":0.0024816,"INCLINATION":81.1471,"RA_OF_ASC_NODE":201.2385,"ARG_OF_PERICENTER":188.112,"MEAN_ANOMALY":171.9715,"EPHEMERIS_TYPE":0,"CLASSIFICATION_TYPE":"U","NORAD_CAT_ID":13403,"ELEMENT_SET_NO":999,"REV_AT_EPOCH":37664,"BSTAR":0.0003355,"MEAN_MOTION_DOT":8.389e-5,"MEAN_MOTION_DDOT":0},{"OBJECT_NAME":"SL-14 R/B","OBJECT_ID":"1982-092B","EPOCH":"2026-03-02T17:18:14.343840","MEAN_MOTION":14.86657907,"ECCENTRICITY":0.0019464,"INCLINATION":82.5704,"RA_OF_ASC_NODE":147.9165,"ARG_OF_PERICENTER":328.0161,"MEAN_ANOMALY":146.7796,"EPHEMERIS_TYPE":0,"CLASSIFICATION_TYPE":"U","NORAD_CAT_ID":13553,"ELEMENT_SET_NO":999,"REV_AT_EPOCH":32789,"BSTAR":6.3599e-5,"MEAN_MOTION_DOT":5.91e-6,"MEAN_MOTION_DDOT":0},{"OBJECT_NAME":"SL-3 R/B","OBJECT_ID":"1983-010B","EPOCH":"2026-03-02T13:51:45.412416","MEAN_MOTION":15.46047834,"ECCENTRICITY":0.0018501,"INCLINATION":81.1055,"RA_OF_ASC_NODE":10.9628,"ARG_OF_PERICENTER":73.5167,"MEAN_ANOMALY":286.8109,"EPHEMERIS_TYPE":0,"CLASSIFICATION_TYPE":"U","NORAD_CAT_ID":13819,"ELEMENT_SET_NO":999,"REV_AT_EPOCH":35684,"BSTAR":0.00039583,"MEAN_MOTION_DOT":0.00019515,"MEAN_MOTION_DDOT":0},{"OBJECT_NAME":"SL-3 R/B","OBJECT_ID":"1983-075B","EPOCH":"2026-03-02T19:00:28.130400","MEAN_MOTION":15.38214633,"ECCENTRICITY":0.0019699,"INCLINATION":97.6131,"RA_OF_ASC_NODE":66.1089,"ARG_OF_PERICENTER":252.8444,"MEAN_ANOMALY":107.0644,"EPHEMERIS_TYPE":0,"CLASSIFICATION_TYPE":"U","NORAD_CAT_ID":14208,"ELEMENT_SET_NO":999,"REV_AT_EPOCH":32909,"BSTAR":0.0003455,"MEAN_MOTION_DOT":0.00013008,"MEAN_MOTION_DDOT":0},{"OBJECT_NAME":"COSMOS 1536","OBJECT_ID":"1984-013A","EPOCH":"2026-03-02T15:03:53.509824","MEAN_MOTION":15.2371415,"ECCENTRICITY":0.0012856,"INCLINATION":82.544,"RA_OF_ASC_NODE":114.8705,"ARG_OF_PERICENTER":311.3422,"MEAN_ANOMALY":48.6708,"EPHEMERIS_TYPE":0,"CLASSIFICATION_TYPE":"U","NORAD_CAT_ID":14699,"ELEMENT_SET_NO":999,"REV_AT_EPOCH":27154,"BSTAR":0.00031257,"MEAN_MOTION_DOT":7.554e-5,"MEAN_MOTION_DDOT":0},{"OBJECT_NAME":"SL-14 R/B","OBJECT_ID":"1984-027B","EPOCH":"2026-03-02T14:56:41.442432","MEAN_MOTION":14.85967653,"ECCENTRICITY":0.0017978,"INCLINATION":82.5381,"RA_OF_ASC_NODE":251.6426,"ARG_OF_PERICENTER":1.8919,"MEAN_ANOMALY":358.2362,"EPHEMERIS_TYPE":0,"CLASSIFICATION_TYPE":"U","NORAD_CAT_ID":14820,"ELEMENT_SET_NO":999,"REV_AT_EPOCH":24658,"BSTAR":6.4193e-5,"MEAN_MOTION_DOT":5.86e-6,"MEAN_MOTION_DDOT":0},{"OBJECT_NAME":"SL-8 R/B","OBJECT_ID":"1985-006B","EPOCH":"2026-03-02T18:31:54.503040","MEAN_MOTION":14.37777855,"ECCENTRICITY":0.0018732,"INCLINATION":74.0434,"RA_OF_ASC_NODE":273.8784,"ARG_OF_PERICENTER":193.2287,"MEAN_ANOMALY":241.2485,"EPHEMERIS_TYPE":0,"CLASSIFICATION_TYPE":"U","NORAD_CAT_ID":15483,"ELEMENT_SET_NO":999,"REV_AT_EPOCH":15303,"BSTAR":7.3556e-5,"MEAN_MOTION_DOT":1.96e-6,"MEAN_MOTION_DDOT":0},{"OBJECT_NAME":"SL-12 R/B(2)","OBJECT_ID":"1985-042D","EPOCH":"2026-03-02T12:40:11.180352","MEAN_MOTION":14.21980154,"ECCENTRICITY":0.00335759,"INCLINATION":71.1065,"RA_OF_ASC_NODE":102.8608,"ARG_OF_PERICENTER":139.8596,"MEAN_ANOMALY":327.3242,"EPHEMERIS_TYPE":0,"CLASSIFICATION_TYPE":"U","NORAD_CAT_ID":15772,"ELEMENT_SET_NO":999,"REV_AT_EPOCH":11337,"BSTAR":9.6211127e-5,"MEAN_MOTION_DOT":1.66e-6,"MEAN_MOTION_DDOT":0},{"OBJECT_NAME":"SL-14 R/B","OBJECT_ID":"1985-069B","EPOCH":"2026-03-02T09:47:02.810688","MEAN_MOTION":14.86422948,"ECCENTRICITY":0.00178414,"INCLINATION":82.5269,"RA_OF_ASC_NODE":31.78,"ARG_OF_PERICENTER":212.532,"MEAN_ANOMALY":147.4799,"EPHEMERIS_TYPE":0,"CLASSIFICATION_TYPE":"U","NORAD_CAT_ID":15945,"ELEMENT_SET_NO":999,"REV_AT_EPOCH":17175,"BSTAR":7.4197068e-5,"MEAN_MOTION_DOT":6.81e-6,"MEAN_MOTION_DDOT":0},{"OBJECT_NAME":"SL-16 R/B","OBJECT_ID":"1985-097B","EPOCH":"2026-03-02T17:22:11.988768","MEAN_MOTION":14.16599518,"ECCENTRICITY":0.0009912,"INCLINATION":71.0037,"RA_OF_ASC_NODE":155.2185,"ARG_OF_PERICENTER":267.9358,"MEAN_ANOMALY":205.4325,"EPHEMERIS_TYPE":0,"CLASSIFICATION_TYPE":"U","NORAD_CAT_ID":16182,"ELEMENT_SET_NO":999,"REV_AT_EPOCH":8624,"BSTAR":3.6487e-5,"MEAN_MOTION_DOT":2.5e-7,"MEAN_MOTION_DDOT":0}]
